[
    {
        "Altitude(m)": 612502.2356930883,
        "Argument of Periapsis(deg)": 0.0,
        "Eccentricity": 0.0,
        "Inclination(deg)": 60.0,
        "Latitude(deg)": -28.136106078623214,
        "Longitude(deg)": -22.851703655683437,
        "Mean Anomaly(deg)": -32.72730000000003,
        "RAAN(deg)": 95.0,
        "Satellite Name": "Test1 438",
        "Satellite Number": 438,
        "Semi-Major Axis(m)": 6980739.136638005,
        "Time(s)": 0
    },
    {
        "Altitude(m)": 612308.68291502,
        "Argument of Periapsis(deg)": 0.00010418945913296404,
        "Eccentricity": 0.0,
        "Inclination(deg)": 60.0,
        "Latitude(deg)": -27.623160846103765,
        "Longitude(deg)": -22.498230088433257,
        "Mean Anomaly(deg)": -32.10719385453813,
        "RAAN(deg)": 94.99957995086027,
        "Satellite Name": "Test1 438",
        "Satellite Number": 438,
        "Semi-Major Axis(m)": 6980739.136638005,
        "Time(s)": 10
    }
]